<?xml version="1.0" encoding="UTF-8"?>
<ndm xmlns:xsi="http://www.w3.org/2001/XMLSchema-instance" xsi:noNamespaceSchemaLocation="https://sanaregistry.org/r/ndmxml_unqualified/ndmxml-2.0.0-master-2.0.xsd">
<omm id="CCSDS_OMM_VERS" version="2.0">
<header><CREATION_DATE/><ORIGINATOR/></header><body><segment><metadata><OBJECT_NAME>ONEWEB-0634</OBJECT_NAME><OBJECT_ID>2023-043AF</OBJECT_ID><CENTER_NAME>EARTH</CENTER_NAME><REF_FRAME>TEME</REF_FRAME><TIME_SYSTEM>UTC</TIME_SYSTEM><MEAN_ELEMENT_THEORY>SGP4</MEAN_ELEMENT_THEORY></metadata><data><meanElements><EPOCH>2025-10-31T12:29:37.805280</EPOCH><MEAN_MOTION>13.15549316</MEAN_MOTION><ECCENTRICITY>.0002091</ECCENTRICITY><INCLINATION>87.8962</INCLINATION><RA_OF_ASC_NODE>304.8658</RA_OF_ASC_NODE><ARG_OF_PERICENTER>83.9229</ARG_OF_PERICENTER><MEAN_ANOMALY>276.2140</MEAN_ANOMALY></meanElements><tleParameters><EPHEMERIS_TYPE>0</EPHEMERIS_TYPE><CLASSIFICATION_TYPE>U</CLASSIFICATION_TYPE><NORAD_CAT_ID>56075</NORAD_CAT_ID><ELEMENT_SET_NO>999</ELEMENT_SET_NO><REV_AT_EPOCH>12633</REV_AT_EPOCH><BSTAR>.4162E-3</BSTAR><MEAN_MOTION_DOT>.17E-5</MEAN_MOTION_DOT><MEAN_MOTION_DDOT>0</MEAN_MOTION_DDOT></tleParameters></data></segment></body></omm>
<omm id="CCSDS_OMM_VERS" version="2.0">
<header><CREATION_DATE/><ORIGINATOR/></header><body><segment><metadata><OBJECT_NAME>ONEWEB-0635</OBJECT_NAME><OBJECT_ID>2023-043AG</OBJECT_ID><CENTER_NAME>EARTH</CENTER_NAME><REF_FRAME>TEME</REF_FRAME><TIME_SYSTEM>UTC</TIME_SYSTEM><MEAN_ELEMENT_THEORY>SGP4</MEAN_ELEMENT_THEORY></metadata><data><meanElements><EPOCH>2025-10-31T12:22:46.543872</EPOCH><MEAN_MOTION>13.15547835</MEAN_MOTION><ECCENTRICITY>.0001636</ECCENTRICITY><INCLINATION>87.8956</INCLINATION><RA_OF_ASC_NODE>304.8230</RA_OF_ASC_NODE><ARG_OF_PERICENTER>95.2612</ARG_OF_PERICENTER><MEAN_ANOMALY>264.8705</MEAN_ANOMALY></meanElements><tleParameters><EPHEMERIS_TYPE>0</EPHEMERIS_TYPE><CLASSIFICATION_TYPE>U</CLASSIFICATION_TYPE><NORAD_CAT_ID>56076</NORAD_CAT_ID><ELEMENT_SET_NO>999</ELEMENT_SET_NO><REV_AT_EPOCH>12636</REV_AT_EPOCH><BSTAR>.2185E-3</BSTAR><MEAN_MOTION_DOT>.95E-6</MEAN_MOTION_DOT><MEAN_MOTION_DDOT>0</MEAN_MOTION_DDOT></tleParameters></data></segment></body></omm>
<omm id="CCSDS_OMM_VERS" version="2.0">
<header><CREATION_DATE/><ORIGINATOR/></header><body><segment><metadata><OBJECT_NAME>ONEWEB-0636</OBJECT_NAME><OBJECT_ID>2023-043AH</OBJECT_ID><CENTER_NAME>EARTH</CENTER_NAME><REF_FRAME>TEME</REF_FRAME><TIME_SYSTEM>UTC</TIME_SYSTEM><MEAN_ELEMENT_THEORY>SGP4</MEAN_ELEMENT_THEORY></metadata><data><meanElements><EPOCH>2025-10-31T12:11:23.015328</EPOCH><MEAN_MOTION>13.15549475</MEAN_MOTION><ECCENTRICITY>.0001504</ECCENTRICITY><INCLINATION>87.8952</INCLINATION><RA_OF_ASC_NODE>304.8424</RA_OF_ASC_NODE><ARG_OF_PERICENTER>92.2278</ARG_OF_PERICENTER><MEAN_ANOMALY>267.9024</MEAN_ANOMALY></meanElements><tleParameters><EPHEMERIS_TYPE>0</EPHEMERIS_TYPE><CLASSIFICATION_TYPE>U</CLASSIFICATION_TYPE><NORAD_CAT_ID>56077</NORAD_CAT_ID><ELEMENT_SET_NO>999</ELEMENT_SET_NO><REV_AT_EPOCH>12634</REV_AT_EPOCH><BSTAR>-.13686E-3</BSTAR><MEAN_MOTION_DOT>-.39E-6</MEAN_MOTION_DOT><MEAN_MOTION_DDOT>0</MEAN_MOTION_DDOT></tleParameters></data></segment></body></omm>
<omm id="CCSDS_OMM_VERS" version="2.0">
<header><CREATION_DATE/><ORIGINATOR/></header><body><segment><metadata><OBJECT_NAME>ONEWEB-0637</OBJECT_NAME><OBJECT_ID>2023-043AJ</OBJECT_ID><CENTER_NAME>EARTH</CENTER_NAME><REF_FRAME>TEME</REF_FRAME><TIME_SYSTEM>UTC</TIME_SYSTEM><MEAN_ELEMENT_THEORY>SGP4</MEAN_ELEMENT_THEORY></metadata><data><meanElements><EPOCH>2025-10-31T12:02:14.792640</EPOCH><MEAN_MOTION>13.15546600</MEAN_MOTION><ECCENTRICITY>.0001713</ECCENTRICITY><INCLINATION>87.8960</INCLINATION><RA_OF_ASC_NODE>304.8584</RA_OF_ASC_NODE><ARG_OF_PERICENTER>82.1188</ARG_OF_PERICENTER><MEAN_ANOMALY>278.0137</MEAN_ANOMALY></meanElements><tleParameters><EPHEMERIS_TYPE>0</EPHEMERIS_TYPE><CLASSIFICATION_TYPE>U</CLASSIFICATION_TYPE><NORAD_CAT_ID>56078</NORAD_CAT_ID><ELEMENT_SET_NO>999</ELEMENT_SET_NO><REV_AT_EPOCH>12636</REV_AT_EPOCH><BSTAR>-.16601E-3</BSTAR><MEAN_MOTION_DOT>-.5E-6</MEAN_MOTION_DOT><MEAN_MOTION_DDOT>0</MEAN_MOTION_DDOT></tleParameters></data></segment></body></omm>
<omm id="CCSDS_OMM_VERS" version="2.0">
<header><CREATION_DATE/><ORIGINATOR/></header><body><segment><metadata><OBJECT_NAME>ONEWEB-0647</OBJECT_NAME><OBJECT_ID>2023-043AK</OBJECT_ID><CENTER_NAME>EARTH</CENTER_NAME><REF_FRAME>TEME</REF_FRAME><TIME_SYSTEM>UTC</TIME_SYSTEM><MEAN_ELEMENT_THEORY>SGP4</MEAN_ELEMENT_THEORY></metadata><data><meanElements><EPOCH>2025-10-31T11:55:24.897216</EPOCH><MEAN_MOTION>13.15548434</MEAN_MOTION><ECCENTRICITY>.0001823</ECCENTRICITY><INCLINATION>87.8959</INCLINATION><RA_OF_ASC_NODE>304.8732</RA_OF_ASC_NODE><ARG_OF_PERICENTER>96.5840</ARG_OF_PERICENTER><MEAN_ANOMALY>263.5497</MEAN_ANOMALY></meanElements><tleParameters><EPHEMERIS_TYPE>0</EPHEMERIS_TYPE><CLASSIFICATION_TYPE>U</CLASSIFICATION_TYPE><NORAD_CAT_ID>56079</NORAD_CAT_ID><ELEMENT_SET_NO>999</ELEMENT_SET_NO><REV_AT_EPOCH>12635</REV_AT_EPOCH><BSTAR>-.32241E-3</BSTAR><MEAN_MOTION_DOT>-.109E-5</MEAN_MOTION_DOT><MEAN_MOTION_DDOT>0</MEAN_MOTION_DDOT></tleParameters></data></segment></body></omm>
<omm id="CCSDS_OMM_VERS" version="2.0">
<header><CREATION_DATE/><ORIGINATOR/></header><body><segment><metadata><OBJECT_NAME>ONEWEB-0651</OBJECT_NAME><OBJECT_ID>2023-043AL</OBJECT_ID><CENTER_NAME>EARTH</CENTER_NAME><REF_FRAME>TEME</REF_FRAME><TIME_SYSTEM>UTC</TIME_SYSTEM><MEAN_ELEMENT_THEORY>SGP4</MEAN_ELEMENT_THEORY></metadata><data><meanElements><EPOCH>2025-10-31T11:48:33.024096</EPOCH><MEAN_MOTION>13.15547804</MEAN_MOTION><ECCENTRICITY>.0001588</ECCENTRICITY><INCLINATION>87.8961</INCLINATION><RA_OF_ASC_NODE>304.8666</RA_OF_ASC_NODE><ARG_OF_PERICENTER>88.0720</ARG_OF_PERICENTER><MEAN_ANOMALY>272.0593</MEAN_ANOMALY></meanElements><tleParameters><EPHEMERIS_TYPE>0</EPHEMERIS_TYPE><CLASSIFICATION_TYPE>U</CLASSIFICATION_TYPE><NORAD_CAT_ID>56080</NORAD_CAT_ID><ELEMENT_SET_NO>999</ELEMENT_SET_NO><REV_AT_EPOCH>12755</REV_AT_EPOCH><BSTAR>-.26437E-3</BSTAR><MEAN_MOTION_DOT>-.87E-6</MEAN_MOTION_DOT><MEAN_MOTION_DDOT>0</MEAN_MOTION_DDOT></tleParameters></data></segment></body></omm>
<omm id="CCSDS_OMM_VERS" version="2.0">
<header><CREATION_DATE/><ORIGINATOR/></header><body><segment><metadata><OBJECT_NAME>ONEWEB-0718</OBJECT_NAME><OBJECT_ID>2023-043AM</OBJECT_ID><CENTER_NAME>EARTH</CENTER_NAME><REF_FRAME>TEME</REF_FRAME><TIME_SYSTEM>UTC</TIME_SYSTEM><MEAN_ELEMENT_THEORY>SGP4</MEAN_ELEMENT_THEORY></metadata><data><meanElements><EPOCH>2025-10-31T13:31:14.128608</EPOCH><MEAN_MOTION>13.15550466</MEAN_MOTION><ECCENTRICITY>.0002279</ECCENTRICITY><INCLINATION>87.8961</INCLINATION><RA_OF_ASC_NODE>304.8330</RA_OF_ASC_NODE><ARG_OF_PERICENTER>79.9058</ARG_OF_PERICENTER><MEAN_ANOMALY>280.2329</MEAN_ANOMALY></meanElements><tleParameters><EPHEMERIS_TYPE>0</EPHEMERIS_TYPE><CLASSIFICATION_TYPE>U</CLASSIFICATION_TYPE><NORAD_CAT_ID>56081</NORAD_CAT_ID><ELEMENT_SET_NO>999</ELEMENT_SET_NO><REV_AT_EPOCH>12637</REV_AT_EPOCH><BSTAR>.2163E-4</BSTAR><MEAN_MOTION_DOT>.21E-6</MEAN_MOTION_DOT><MEAN_MOTION_DDOT>0</MEAN_MOTION_DDOT></tleParameters></data></segment></body></omm>
<omm id="CCSDS_OMM_VERS" version="2.0">
<header><CREATION_DATE/><ORIGINATOR/></header><body><segment><metadata><OBJECT_NAME>ONEWEB-0561</OBJECT_NAME><OBJECT_ID>2023-068A</OBJECT_ID><CENTER_NAME>EARTH</CENTER_NAME><REF_FRAME>TEME</REF_FRAME><TIME_SYSTEM>UTC</TIME_SYSTEM><MEAN_ELEMENT_THEORY>SGP4</MEAN_ELEMENT_THEORY></metadata><data><meanElements><EPOCH>2025-10-31T13:31:51.613248</EPOCH><MEAN_MOTION>13.20770453</MEAN_MOTION><ECCENTRICITY>.0001594</ECCENTRICITY><INCLINATION>87.9189</INCLINATION><RA_OF_ASC_NODE>320.0495</RA_OF_ASC_NODE><ARG_OF_PERICENTER>106.3904</ARG_OF_PERICENTER><MEAN_ANOMALY>253.7405</MEAN_ANOMALY></meanElements><tleParameters><EPHEMERIS_TYPE>0</EPHEMERIS_TYPE><CLASSIFICATION_TYPE>U</CLASSIFICATION_TYPE><NORAD_CAT_ID>56710</NORAD_CAT_ID><ELEMENT_SET_NO>999</ELEMENT_SET_NO><REV_AT_EPOCH>11932</REV_AT_EPOCH><BSTAR>-.78415E-5</BSTAR><MEAN_MOTION_DOT>.1E-6</MEAN_MOTION_DOT><MEAN_MOTION_DDOT>0</MEAN_MOTION_DDOT></tleParameters></data></segment></body></omm>

</ndm>
