ONEWEB-0634             
1 56075U 23043AF  25304.52057645  .00000170  00000+0  41620-3 0  9996
2 56075  87.8962 304.8658 0002091  83.9229 276.2140 13.15549316126339
ONEWEB-0635             
1 56076U 23043AG  25304.51581648  .00000095  00000+0  21850-3 0  9990
2 56076  87.8956 304.8230 0001636  95.2612 264.8705 13.15547835126362
ONEWEB-0636             
1 56077U 23043AH  25304.50790527 -.00000039  00000+0 -13686-3 0  9996
2 56077  87.8952 304.8424 0001504  92.2278 267.9024 13.15549475126341
ONEWEB-0637             
1 56078U 23043AJ  25304.50156010 -.00000050  00000+0 -16601-3 0  9993
2 56078  87.8960 304.8584 0001713  82.1188 278.0137 13.15546600126365
ONEWEB-0647             
1 56079U 23043AK  25304.49681594 -.00000109  00000+0 -32241-3 0  9995
2 56079  87.8959 304.8732 0001823  96.5840 263.5497 13.15548434126359
ONEWEB-0651             
1 56080U 23043AL  25304.49204889 -.00000087  00000+0 -26437-3 0  9990
2 56080  87.8961 304.8666 0001588  88.0720 272.0593 13.15547804127556
ONEWEB-0718             
1 56081U 23043AM  25304.56335797  .00000021  00000+0  21630-4 0  9999
2 56081  87.8961 304.8330 0002279  79.9058 280.2329 13.15550466126371
ONEWEB-0561             
1 56710U 23068A   25304.56379182  .00000010  00000+0 -78415-5 0  9994
2 56710  87.9189 320.0495 0001594 106.3904 253.7405 13.20770453119322
